STARLINK-36072          
1 66856U 25281J   25344.66668981 -.01158350  41088-3 -27361-2 0  9997
2 66856  43.0014 135.2663 0001643 276.2049 226.6934 15.95902482  2464
STARLINK-36083          
1 66857U 25281K   25344.66668981 -.01181694  42646-3 -27806-2 0  9990
2 66857  43.0014 135.2616 0001655 277.0441 227.7970 15.95976314  2468
STARLINK-35118          
1 66858U 25281L   25344.66668981 -.01195394  43585-3 -28024-2 0  9999
2 66858  43.0016 135.2559 0001625 274.4321 232.4648 15.96046904  2461
STARLINK-35646          
1 66859U 25281M   25344.66668981 -.01210178  44611-3 -28252-2 0  9992
2 66859  43.0016 135.2504 0001681 276.3454 232.8564 15.96125298  2467
STARLINK-35987          
1 66860U 25281N   25344.66668981 -.01236658  46593-3 -28282-2 0  9999
2 66860  43.0016 135.2202 0001581 268.6575 252.4584 15.96505755  2461
STARLINK-35991          
1 66861U 25281P   25344.66668981 -.01225954  45751-3 -28388-2 0  9999
2 66861  43.0017 135.2384 0001589 271.8161 242.1053 15.96277539  2462
STARLINK-35974          
1 66862U 25281Q   25344.66668981 -.01217847  45166-3 -28311-2 0  9998
2 66862  43.0016 135.2443 0001585 276.2426 235.4564 15.96204816  2467
STARLINK-36134          
1 66863U 25281R   25344.66668981 -.01232146  46217-3 -28390-2 0  9993
2 66863  43.0020 135.2311 0001559 271.3805 245.4654 15.96368931  2465
STARLINK-36070          
1 66864U 25281S   25344.66668981 -.01231853  46229-3 -28281-2 0  9990
2 66864  43.0019 135.2256 0001545 273.7453 245.1559 15.96435157  2468
STARLINK-36117          
1 66865U 25281T   25344.66668981 -.01242568  47038-3 -28297-2 0  9992
2 66865  43.0019 135.2145 0001587 270.3957 253.0482 15.96583953  2465
STARLINK-36126          
1 66866U 25281U   25344.75002315 -.01224235  45710-3 -28095-2 0  9998
2 66866  43.0020 134.6885 0001689 273.0721  11.8299 15.96440327  2478
STARLINK-36101          
1 66867U 25281V   25344.75002315 -.01223728  45712-3 -27961-2 0  9998
2 66867  43.0022 134.6817 0001686 274.9191  12.5728 15.96520047  2477
